{
  "norad_id": 60541,
  "name": "UMBRA-09",
  "history": [
    {
      "epoch": "2026-03-28T18:46:10.866144Z",
      "apogee_km": 520.6944059769248,
      "perigee_km": 518.3245126064412,
      "latitude_deg": 2.3194667576629998e-05,
      "longitude_deg": 66.02934182819016,
      "height_km": 523.5204683222654,
      "semi_major_axis_km": 6897.646459291683,
      "eccentricity": 0.00017179,
      "inclination_deg": 97.6973,
      "raan_deg": 173.7722,
      "arg_perigee_deg": 218.0119,
      "mean_anomaly_deg": 142.0992,
      "mean_motion_rev_day": 15.15484036
    },
    {
      "epoch": "2026-03-29T04:16:39.159264Z",
      "apogee_km": 520.5975819099367,
      "perigee_km": 518.2882721503665,
      "latitude_deg": 4.370678085894984e-05,
      "longitude_deg": -76.57752282592297,
      "height_km": 523.4513531612782,
      "semi_major_axis_km": 6897.579927030151,
      "eccentricity": 0.0001674,
      "inclination_deg": 97.6975,
      "raan_deg": 174.1737,
      "arg_perigee_deg": 216.2566,
      "mean_anomaly_deg": 143.8553,
      "mean_motion_rev_day": 15.15505963
    },
    {
      "epoch": "2026-03-29T20:07:25.175712Z",
      "apogee_km": 520.5134605602443,
      "perigee_km": 518.1614217758051,
      "latitude_deg": 2.349166439756709e-05,
      "longitude_deg": 45.74876818004544,
      "height_km": 523.4239727759228,
      "semi_major_axis_km": 6897.474441168024,
      "eccentricity": 0.0001705,
      "inclination_deg": 97.6979,
      "raan_deg": 174.8425,
      "arg_perigee_deg": 210.8818,
      "mean_anomaly_deg": 149.2314,
      "mean_motion_rev_day": 15.15540729
    },
    {
      "epoch": "2026-03-30T05:37:52.199616Z",
      "apogee_km": 520.4260402779382,
      "perigee_km": 518.1296149852269,
      "latitude_deg": 3.423503959680244e-05,
      "longitude_deg": -96.85289193423002,
      "height_km": 523.3493535831968,
      "semi_major_axis_km": 6897.414827631583,
      "eccentricity": 0.00016647,
      "inclination_deg": 97.6979,
      "raan_deg": 175.2439,
      "arg_perigee_deg": 210.0058,
      "mean_anomaly_deg": 150.1079,
      "mean_motion_rev_day": 15.15560377
    },
    {
      "epoch": "2026-03-30T10:23:05.536608Z",
      "apogee_km": 520.4295721051367,
      "perigee_km": 518.0662521388476,
      "latitude_deg": 4.579952464734958e-05,
      "longitude_deg": -168.15329177553207,
      "height_km": 523.3607839631987,
      "semi_major_axis_km": 6897.384912121992,
      "eccentricity": 0.00017132,
      "inclination_deg": 97.6978,
      "raan_deg": 175.4443,
      "arg_perigee_deg": 208.784,
      "mean_anomaly_deg": 151.3298,
      "mean_motion_rev_day": 15.15570237
    },
    {
      "epoch": "2026-03-30T19:53:31.838208Z",
      "apogee_km": 520.3421815811016,
      "perigee_km": 518.0176478345074,
      "latitude_deg": 8.911350706882158e-05,
      "longitude_deg": 49.24866167670282,
      "height_km": 523.279087218712,
      "semi_major_axis_km": 6897.316914707804,
      "eccentricity": 0.00016851,
      "inclination_deg": 97.6977,
      "raan_deg": 175.8463,
      "arg_perigee_deg": 208.444,
      "mean_anomaly_deg": 151.6701,
      "mean_motion_rev_day": 15.15592649
    },
    {
      "epoch": "2026-03-31T11:44:14.468640Z",
      "apogee_km": 520.2229139894525,
      "perigee_km": 517.9222807561518,
      "latitude_deg": -3.5222127222206293e-06,
      "longitude_deg": 171.5892099941176,
      "height_km": 523.154620090077,
      "semi_major_axis_km": 6897.209597372802,
      "eccentricity": 0.00016678,
      "inclination_deg": 97.6975,
      "raan_deg": 176.5152,
      "arg_perigee_deg": 209.1386,
      "mean_anomaly_deg": 150.9753,
      "mean_motion_rev_day": 15.15628022
    },
    {
      "epoch": "2026-04-01T19:25:36.772896Z",
      "apogee_km": 520.206262884376,
      "perigee_km": 517.6460730364288,
      "latitude_deg": 6.783033184914179e-06,
      "longitude_deg": 56.282833214670134,
      "height_km": 523.1057446169715,
      "semi_major_axis_km": 6897.063167960402,
      "eccentricity": 0.0001856,
      "inclination_deg": 97.6973,
      "raan_deg": 177.8532,
      "arg_perigee_deg": 210.5834,
      "mean_anomaly_deg": 149.529,
      "mean_motion_rev_day": 15.15676289
    },
    {
      "epoch": "2026-04-02T11:16:16.586688Z",
      "apogee_km": 520.0817969643431,
      "perigee_km": 517.5783358585777,
      "latitude_deg": -4.454537451043618e-05,
      "longitude_deg": 178.63504378915061,
      "height_km": 523.0125219267456,
      "semi_major_axis_km": 6896.96706641146,
      "eccentricity": 0.00018149,
      "inclination_deg": 97.6967,
      "raan_deg": 178.522,
      "arg_perigee_deg": 208.025,
      "mean_anomaly_deg": 152.0884,
      "mean_motion_rev_day": 15.15707968
    },
    {
      "epoch": "2026-04-03T18:57:31.086432Z",
      "apogee_km": 519.8582924837428,
      "perigee_km": 517.2527220544971,
      "latitude_deg": 1.539512117485546e-06,
      "longitude_deg": 63.36136862979735,
      "height_km": 522.8059273206125,
      "semi_major_axis_km": 6896.69250726912,
      "eccentricity": 0.0001889,
      "inclination_deg": 97.6964,
      "raan_deg": 179.8601,
      "arg_perigee_deg": 205.8102,
      "mean_anomaly_deg": 154.3036,
      "mean_motion_rev_day": 15.1579848
    },
    {
      "epoch": "2026-04-04T18:43:22.317024Z",
      "apogee_km": 519.5715621897125,
      "perigee_km": 517.1246892671033,
      "latitude_deg": -2.0784686112609737e-05,
      "longitude_deg": 66.92624779659049,
      "height_km": 522.510457846717,
      "semi_major_axis_km": 6896.485125728407,
      "eccentricity": 0.0001774,
      "inclination_deg": 97.6966,
      "raan_deg": 180.8644,
      "arg_perigee_deg": 207.5543,
      "mean_anomaly_deg": 152.5595,
      "mean_motion_rev_day": 15.15866852
    },
    {
      "epoch": "2026-04-05T05:48:45.287712Z",
      "apogee_km": 519.4775209345553,
      "perigee_km": 517.0941172082839,
      "latitude_deg": 5.800647207253076e-05,
      "longitude_deg": -99.4068130093221,
      "height_km": 522.4512211556467,
      "semi_major_axis_km": 6896.422819071419,
      "eccentricity": 0.0001728,
      "inclination_deg": 97.6961,
      "raan_deg": 181.3325,
      "arg_perigee_deg": 204.096,
      "mean_anomaly_deg": 156.0192,
      "mean_motion_rev_day": 15.15887395
    },
    {
      "epoch": "2026-04-05T18:29:10.989312Z",
      "apogee_km": 519.4280599565673,
      "perigee_km": 517.029503937606,
      "latitude_deg": 6.361064911403517e-05,
      "longitude_deg": 70.50090057390722,
      "height_km": 522.4151314034676,
      "semi_major_axis_km": 6896.365781947086,
      "eccentricity": 0.0001739,
      "inclination_deg": 97.6964,
      "raan_deg": 181.8678,
      "arg_perigee_deg": 202.3926,
      "mean_anomaly_deg": 157.7231,
      "mean_motion_rev_day": 15.15906201
    },
    {
      "epoch": "2026-04-06T03:59:29.942592Z",
      "apogee_km": 519.398433927362,
      "perigee_km": 516.987614877432,
      "latitude_deg": 1.0252346984386698e-05,
      "longitude_deg": -72.06673243317883,
      "height_km": 522.4077036381832,
      "semi_major_axis_km": 6896.330024402397,
      "eccentricity": 0.00017479,
      "inclination_deg": 97.6962,
      "raan_deg": 182.2695,
      "arg_perigee_deg": 199.3587,
      "mean_anomaly_deg": 160.7579,
      "mean_motion_rev_day": 15.15917991
    },
    {
      "epoch": "2026-04-07T11:40:30.532800Z",
      "apogee_km": 519.2622667929945,
      "perigee_km": 516.8428076557557,
      "latitude_deg": 8.739082061485581e-06,
      "longitude_deg": 172.7179100778861,
      "height_km": 522.2944506428937,
      "semi_major_axis_km": 6896.189537224375,
      "eccentricity": 0.00017542,
      "inclination_deg": 97.6961,
      "raan_deg": 183.6078,
      "arg_perigee_deg": 195.7051,
      "mean_anomaly_deg": 164.4127,
      "mean_motion_rev_day": 15.15964314
    },
    {
      "epoch": "2026-04-07T18:00:42.259968Z",
      "apogee_km": 519.2535696348123,
      "perigee_km": 516.8026725507752,
      "latitude_deg": -1.1948933573614993e-05,
      "longitude_deg": 77.67651434363533,
      "height_km": 522.2850380783116,
      "semi_major_axis_km": 6896.165121092793,
      "eccentricity": 0.0001777,
      "inclination_deg": 97.696,
      "raan_deg": 183.8755,
      "arg_perigee_deg": 195.7324,
      "mean_anomaly_deg": 164.3853,
      "mean_motion_rev_day": 15.15972365
    },
    {
      "epoch": "2026-04-08T11:26:13.544160Z",
      "apogee_km": 519.194496320526,
      "perigee_km": 516.6779812742243,
      "latitude_deg": 2.4207313363461865e-05,
      "longitude_deg": 176.3167225098953,
      "height_km": 522.212401233027,
      "semi_major_axis_km": 6896.073238797375,
      "eccentricity": 0.00018246,
      "inclination_deg": 97.6959,
      "raan_deg": 184.6117,
      "arg_perigee_deg": 197.708,
      "mean_anomaly_deg": 162.4089,
      "mean_motion_rev_day": 15.16002663
    },
    {
      "epoch": "2026-04-09T19:07:08.361120Z",
      "apogee_km": 519.151890176212,
      "perigee_km": 516.5052185964387,
      "latitude_deg": -2.620304545638402e-05,
      "longitude_deg": 61.12549221432048,
      "height_km": 522.1682689611744,
      "semi_major_axis_km": 6895.9655543863255,
      "eccentricity": 0.0001919,
      "inclination_deg": 97.6957,
      "raan_deg": 185.95,
      "arg_perigee_deg": 197.5001,
      "mean_anomaly_deg": 162.6165,
      "mean_motion_rev_day": 15.16038173
    },
    {
      "epoch": "2026-04-10T04:37:24.185856Z",
      "apogee_km": 519.1093377896177,
      "perigee_km": 516.4549605907114,
      "latitude_deg": -7.143898837219898e-06,
      "longitude_deg": -81.42917946213394,
      "height_km": 522.1177571879981,
      "semi_major_axis_km": 6895.919149190164,
      "eccentricity": 0.00019246,
      "inclination_deg": 97.6956,
      "raan_deg": 186.3516,
      "arg_perigee_deg": 198.5944,
      "mean_anomaly_deg": 161.5218,
      "mean_motion_rev_day": 15.16053476
    }
  ]
}